*******************************************************************************
 Revised: June 21, 2016                 Mars                            499 / 4
 
 PHYSICAL DATA (updated 2019-Oct-29):
  Vol. mean radius (km) = 3389.92+-0.04   Density (g/cm^3)      =  3.933(5+-4)
  Mass x10^23 (kg)      =    6.4171       Flattening, f         =  1/169.779
  Volume (x10^10 km^3)  =   16.318        Equatorial radius (km)=  3396.19
  Sidereal rot. period  =   24.622962 hr  Sid. rot. rate, rad/s =  0.0000708822 
  Mean solar day (sol)  =   88775.24415 s Polar gravity m/s^2   =  3.758
  Core radius (km)      = ~1700           Equ. gravity  m/s^2   =  3.71
  Geometric Albedo      =    0.150                                              

  GM (km^3/s^2)         = 42828.375214    Mass ratio (Sun/Mars) = 3098703.59
  GM 1-sigma (km^3/s^2) = +- 0.00028      Mass of atmosphere, kg= ~ 2.5 x 10^16
  Mean temperature (K)  =  210            Atmos. pressure (bar) =    0.0056 
  Obliquity to orbit    =   25.19 deg     Max. angular diam.    =  17.9"
  Mean sidereal orb per =    1.88081578 y Visual mag. V(1,0)    =  -1.52
  Mean sidereal orb per =  686.98 d       Orbital speed,  km/s  =  24.13
  Hill's sphere rad. Rp =  319.8          Escape speed, km/s    =   5.027
                                 Perihelion  Aphelion    Mean
  Solar Constant (W/m^2)         717         493         589
  Maximum Planetary IR (W/m^2)   470         315         390
  Minimum Planetary IR (W/m^2)    30          30          30
*******************************************************************************


*******************************************************************************
Ephemeris / WWW_USER Mon Oct 10 07:54:44 2022 Pasadena, USA      / Horizons
*******************************************************************************
Target body name: Mars (499)                      {source: mar097}
Center body name: Sun (10)                        {source: mar097}
Center-site name: BODY CENTER
*******************************************************************************
Start time      : A.D. 2022-Sep-23 00:00:00.0000 TDB
Stop  time      : A.D. 2025-Sep-23 00:00:00.0000 TDB
Step-size       : 14400 minutes
*******************************************************************************
Center geodetic : 0.00000000,0.00000000,0.0000000 {E-lon(deg),Lat(deg),Alt(km)}
Center cylindric: 0.00000000,0.00000000,0.0000000 {E-lon(deg),Dxy(km),Dz(km)}
Center radii    : 696000.0 x 696000.0 x 696000.0 k{Equator, meridian, pole}    
Output units    : KM-S
Output type     : GEOMETRIC cartesian states
Output format   : 2x (pos. & vel. w/uncertainties: XYZ)
Reference frame : Ecliptic of J2000.0
*******************************************************************************
JDTDB
 State   : X       Y        Z     VX       VY        VZ
 1-sigma : X_s     Y_s      Z_s   VX_s     VY_s      VZ_s
*******************************************************************************************************************************************************
$$SOE
2460605.500000000 = A.D. 2024-Oct-22 00:00:00.0000 TDB 
 XYZ   :  6.263477898689327E+07   2.201548985373259E+08   3.077201271341726E+06  -2.238902346595476E+01   8.690082892928725E+00   7.312222663718893E-01
 sigmas:                   n.a.                    n.a.                    n.a.                    n.a.                    n.a.                    n.a.
2460615.500000000 = A.D. 2024-Nov-01 00:00:00.0000 TDB 
 XYZ   :  4.306065187248132E+07   2.267520808279491E+08   3.695523828099579E+06  -2.288856687312857E+01   6.579613588436161E+00   6.992407128182809E-01
 sigmas:                   n.a.                    n.a.                    n.a.                    n.a.                    n.a.                    n.a.
2460625.500000000 = A.D. 2024-Nov-11 00:00:00.0000 TDB 
 XYZ   :  2.313927766333840E+07   2.315242517574912E+08   4.284112689266339E+06  -2.319390369889089E+01   4.468327407018418E+00   6.624792910431749E-01
 sigmas:                   n.a.                    n.a.                    n.a.                    n.a.                    n.a.                    n.a.
2460635.500000000 = A.D. 2024-Nov-21 00:00:00.0000 TDB 
 XYZ   :  3.035536232493373E+06   2.344777431008118E+08   4.839057073860586E+06  -2.331194148081570E+01   2.372238887529968E+00   6.214431609022877E-01
 sigmas:                   n.a.                    n.a.                    n.a.                    n.a.                    n.a.                    n.a.
2460645.500000000 = A.D. 2024-Dec-01 00:00:00.0000 TDB 
 XYZ   : -1.709203580541218E+07   2.356320177395609E+08   5.356876921317920E+06  -2.325040971084134E+01   3.057425454851295E-01   5.766232750728405E-01
 sigmas:                   n.a.                    n.a.                    n.a.                    n.a.                    n.a.                    n.a.
2460655.500000000 = A.D. 2024-Dec-11 00:00:00.0000 TDB 
 XYZ   : -3.709184124087879E+07   2.350183095261688E+08   5.834508695032984E+06  -2.301760350601688E+01  -1.718288778695504E+00   5.284923475283504E-01
 sigmas:                   n.a.                    n.a.                    n.a.                    n.a.                    n.a.                    n.a.
2460665.500000000 = A.D. 2024-Dec-21 00:00:00.0000 TDB 
 XYZ   : -5.681962041152167E+07   2.326783616798531E+08   6.269288877405718E+06  -2.262218513684908E+01  -3.688380690931041E+00   4.775036355849470E-01
 sigmas:                   n.a.                    n.a.                    n.a.                    n.a.                    n.a.                    n.a.
2460675.500000000 = A.D. 2024-Dec-31 00:00:00.0000 TDB 
 XYZ   : -7.613869810519028E+07   2.286632676362083E+08   6.658936417141199E+06  -2.207302193427178E+01  -5.594344441784620E+00   4.240886192466859E-01
 sigmas:                   n.a.                    n.a.                    n.a.                    n.a.                    n.a.                    n.a.
2460685.500000000 = A.D. 2025-Jan-10 00:00:00.0000 TDB 
 XYZ   : -9.492009582022125E+07   2.230324157633450E+08   7.001533092758104E+06  -2.137904323224562E+01  -7.427143084241404E+00   3.686557698484809E-01
 sigmas:                   n.a.                    n.a.                    n.a.                    n.a.                    n.a.                    n.a.
2460695.500000000 = A.D. 2025-Jan-20 00:00:00.0000 TDB 
 XYZ   : -1.130425406089956E+08   2.158525555041615E+08   7.295503936872542E+06  -2.054914360827290E+01  -9.178751928433940E+00   3.115914631010375E-01
 sigmas:                   n.a.                    n.a.                    n.a.                    n.a.                    n.a.                    n.a.
2460705.500000000 = A.D. 2025-Jan-30 00:00:00.0000 TDB 
 XYZ   : -1.303924043844139E+08   2.071969790753489E+08   7.539598694256842E+06  -1.959211552322946E+01  -1.084202981615160E+01   2.532610992695146E-01
 sigmas:                   n.a.                    n.a.                    n.a.                    n.a.                    n.a.                    n.a.
2460715.500000000 = A.D. 2025-Feb-09 00:00:00.0000 TDB 
 XYZ   : -1.468635951197848E+08   1.971448102347200E+08   7.732874317138284E+06  -1.851660557363067E+01  -1.241059945429542E+01   1.940106613107249E-01
 sigmas:                   n.a.                    n.a.                    n.a.                    n.a.                    n.a.                    n.a.
2460725.500000000 = A.D. 2025-Feb-19 00:00:00.0000 TDB 
 XYZ   : -1.623574190272025E+08   1.857803931637561E+08   7.874678723728970E+06  -1.733109037169465E+01  -1.387873612460039E+01   1.341680345566134E-01
 sigmas:                   n.a.                    n.a.                    n.a.                    n.a.                    n.a.                    n.a.
2460735.500000000 = A.D. 2025-Mar-01 00:00:00.0000 TDB 
 XYZ   : -1.767824292742451E+08   1.731927736789471E+08   7.964635986740984E+06  -1.604386784362955E+01  -1.524126476147086E+01   7.404477859811021E-02
 sigmas:                   n.a.                    n.a.                    n.a.                    n.a.                    n.a.                    n.a.
2460745.500000000 = A.D. 2025-Mar-11 00:00:00.0000 TDB 
 XYZ   : -1.900542717994938E+08   1.594752666795667E+08   8.002633128000267E+06  -1.466306120773046E+01  -1.649346148610802E+01   1.393863630651904E-02
 sigmas:                   n.a.                    n.a.                    n.a.                    n.a.                    n.a.                    n.a.
2460755.500000000 = A.D. 2025-Mar-21 00:00:00.0000 TDB 
 XYZ   : -2.020955464466030E+08   1.447251060064761E+08   7.988809754128955E+06  -1.319665156609200E+01  -1.763096808348904E+01  -4.586293845515943E-02
 sigmas:                   n.a.                    n.a.                    n.a.                    n.a.                    n.a.                    n.a.
2460765.500000000 = A.D. 2025-Mar-31 00:00:00.0000 TDB 
 XYZ   : -2.128356991241224E+08   1.290431526164560E+08   7.923549875235230E+06  -1.165250788094032E+01  -1.864973703899049E+01  -1.050817385650165E-01
 sigmas:                   n.a.                    n.a.                    n.a.                    n.a.                    n.a.                    n.a.
2460775.500000000 = A.D. 2025-Apr-10 00:00:00.0000 TDB 
 XYZ   : -2.222109349769689E+08   1.125336535208815E+08   7.807474336603031E+06  -1.003841470122131E+01  -1.954596673069990E+01  -1.634471747811270E-01
 sigmas:                   n.a.                    n.a.                    n.a.                    n.a.                    n.a.                    n.a.
2460785.500000000 = A.D. 2025-Apr-20 00:00:00.0000 TDB 
 XYZ   : -2.301641657070261E+08   9.530405475952530E+07   7.641435417374201E+06  -8.362120714517506E+00  -2.031604631930534E+01  -2.206937097313943E-01
 sigmas:                   n.a.                    n.a.                    n.a.                    n.a.                    n.a.                    n.a.
